NORAD_CAT_ID,OBJECT_NAME,OBJECT_TYPE,EPOCH,MEAN_MOTION,ECCENTRICITY,INCLINATION,RA_OF_ASC_NODE,ARG_OF_PERICENTER,MEAN_ANOMALY,BSTAR,MEAN_MOTION_DOT,MEAN_MOTION_DDOT,TLE_LINE0,TLE_LINE1,TLE_LINE2,SEMIMAJOR_AXIS,PERIOD,APOGEE,PERIGEE,DECAYED
52682.0,STARLINK-4017,PAYLOAD,2022-06-13 22:00:00,15.73219025,0.0002612,53.2139,166.7585,19.5014,129.6466,-0.00024434,-0.00034806,0.0,0 STARLINK-4017,1 52682U 22053AC  22164.91667824 -.00034806  00000-0 -24434-3 0  9996,2 52682  53.2139 166.7585 0002612  19.5014 129.6466 15.73219025  4482,6727.840999999999,91.532,351.463,347.949,0.0
52682.0,STARLINK-4017,PAYLOAD,2022-06-14 14:00:01,15.73183877,0.0002876,53.214,163.4611,20.0472,306.9372,-0.00025864,-0.00036746,0.0,0 STARLINK-4017,1 52682U 22053AC  22165.58334491 -.00036746  00000-0 -25864-3 0  9994,2 52682  53.2140 163.4611 0002876  20.0472 306.9372 15.73183877  1304,6727.941,91.534,351.741,347.871,0.0
52682.0,STARLINK-4017,PAYLOAD,2022-06-14 22:00:00,15.73170185,0.0002628,53.2141,161.81,20.5368,35.3399,9.4173e-05,0.00012599,0.0,0 STARLINK-4017,1 52682U 22053AC  22165.91667824  .00012599  00000-0  94173-4 0  9998,2 52682  53.2141 161.8100 0002628  20.5368  35.3399 15.73170185  1304,6727.98,91.535,351.61300000000006,348.077,0.0
52682.0,STARLINK-4017,PAYLOAD,2022-06-15 06:00:00,15.73161444,0.0002778,53.2139,160.1625,16.9345,127.8554,1.911e-05,2.056e-05,0.0,0 STARLINK-4017,1 52682U 22053AC  22166.25001157  .00002056  00000-0  19110-4 0  9992,2 52682  53.2139 160.1625 0002778  16.9345 127.8554 15.73161444  4698,6728.005,91.535,351.73900000000015,348.001,0.0
52682.0,STARLINK-4017,PAYLOAD,2022-06-15 14:00:01,15.73192849,0.000276,53.2137,158.5127,17.2451,216.4245,0.00010765,0.0001450999999999,0.0,0 STARLINK-4017,1 52682U 22053AC  22166.58334491  .00014510  00000-0  10765-3 0  9992,2 52682  53.2137 158.5127 0002760  17.2451 216.4245 15.73192849  1307,6727.916,91.534,351.63699999999994,347.9240000000001,0.0
52682.0,STARLINK-4017,PAYLOAD,2022-06-15 22:00:00,15.73229177,0.000257,53.2142,156.8615,21.8372,300.7693,9.0817e-05,0.00012159,0.0,0 STARLINK-4017,1 52682U 22053AC  22166.91667824  .00012159  00000-0  90817-4 0  9992,2 52682  53.2142 156.8615 0002570  21.8372 300.7693 15.73229177  4805,6727.812,91.531,351.406,347.9480000000001,0.0
52682.0,STARLINK-4017,PAYLOAD,2022-06-16 02:00:01,15.73266073,0.0002682,53.2146,156.0377,24.0349,163.0563,-0.00044367,-0.00062615,0.0,0 STARLINK-4017,1 52682U 22053AC  22167.08334491 -.00062615  00000-0 -44367-3 0  9994,2 52682  53.2146 156.0377 0002682  24.0349 163.0563 15.73266073  1303,6727.706999999999,91.529,351.376,347.767,0.0
52682.0,STARLINK-4017,PAYLOAD,2022-06-19 14:00:01,15.73238652,0.0002434,53.2141,138.7184,14.1517,206.7579,-0.00062641,-0.00087782,0.0,0 STARLINK-4017,1 52682U 22053AC  22170.58334491 -.00087782  00000-0 -62641-3 0  9990,2 52682  53.2141 138.7184 0002434  14.1517 206.7579 15.73238652  1307,6727.785,91.531,351.288,348.01199999999994,0.0
52682.0,STARLINK-4017,PAYLOAD,2022-06-19 22:00:00,15.73166018,0.0002304,53.2145,137.0678,20.4182,289.428,0.00049841,0.00069814,0.0,0 STARLINK-4017,1 52682U 22053AC  22170.91667824  .00069814  00000-0  49841-3 0  9997,2 52682  53.2145 137.0678 0002304  20.4182 289.4280 15.73166018  1308,6727.9919999999975,91.535,351.407,348.307,0.0
52682.0,STARLINK-4017,PAYLOAD,2022-06-20 06:00:00,15.73206051,0.0002562,53.2146,135.4206,18.6126,20.1452,0.00020712,0.00028556,0.0,0 STARLINK-4017,1 52682U 22053AC  22171.25001157  .00028556  00000-0  20712-3 0  9990,2 52682  53.2146 135.4206 0002562  18.6126  20.1452 15.73206051  5487,6727.878000000002,91.533,351.467,348.019,0.0
52682.0,STARLINK-4017,PAYLOAD,2022-06-20 14:00:01,15.73225474,0.0002437,53.2144,133.7696,16.254,111.4537,-0.00038371,-0.00054194,0.0,0 STARLINK-4017,1 52682U 22053AC  22171.58334491 -.00054194  00000-0 -38371-3 0  9995,2 52682  53.2144 133.7696 0002437  16.2540 111.4537 15.73225474  1309,6727.823,91.532,351.327,348.048,0.0
52682.0,STARLINK-4017,PAYLOAD,2022-06-20 20:00:01,15.73195613,0.0002308,53.2143,132.5315,19.8639,84.5553,-6.8658e-05,-0.00010245,0.0,0 STARLINK-4017,1 52682U 22053AC  22171.83334491 -.00010245  00000-0 -68658-4 0  9994,2 52682  53.2143 132.5315 0002308  19.8639  84.5553 15.73195613  5570,6727.908,91.533,351.325,348.22,0.0
52682.0,STARLINK-4017,PAYLOAD,2022-06-20 22:00:00,15.73190526,0.0002326,53.2144,132.1194,21.7283,194.9215,2.9569e-05,3.529e-05,0.0,0 STARLINK-4017,1 52682U 22053AC  22171.91667824  .00003529  00000-0  29569-4 0  9995,2 52682  53.2144 132.1194 0002326  21.7283 194.9215 15.73190526  1305,6727.922,91.534,351.352,348.222,0.0
52682.0,STARLINK-4017,PAYLOAD,2022-06-21 14:00:01,15.73344915,0.0002376,53.2154,128.821,16.72,17.7899,-0.0029427,-0.00397273,0.0,0 STARLINK-4017,1 52682U 22053AC  22172.58334491 -.00397273  00000-0 -29427-2 0  9995,2 52682  53.2154 128.8210 0002376  16.7200  17.7899 15.73344915  5694,6727.482,91.525,350.945,347.749,0.0
52682.0,STARLINK-4017,PAYLOAD,2022-06-21 22:00:00,15.73236927,0.0002167,53.2139,127.1706,18.5543,104.908,-0.00027882,-0.00039634,0.0,0 STARLINK-4017,1 52682U 22053AC  22172.91667824 -.00039634  00000-0 -27882-3 0  9999,2 52682  53.2139 127.1706 0002167  18.5543 104.9080 15.73236927  5747,6727.79,91.531,351.11300000000006,348.19699999999995,0.0
52682.0,STARLINK-4017,PAYLOAD,2022-06-22 14:00:01,15.73179717,0.0002295,53.2139,123.8718,17.1994,284.1423,-0.00012022,-0.00017446,0.0,0 STARLINK-4017,1 52682U 22053AC  22173.58334491 -.00017446  00000-0 -12022-3 0  9991,2 52682  53.2139 123.8718 0002295  17.1994 284.1423 15.73179717  1303,6727.953,91.534,351.362,348.274,0.0
52682.0,STARLINK-4017,PAYLOAD,2022-06-22 22:00:00,15.73192751,0.0002237,53.2139,122.222,20.806,9.4266,0.00025946,0.0003594,0.0,0 STARLINK-4017,1 52682U 22053AC  22173.91667824  .00035940  00000-0  25946-3 0  9993,2 52682  53.2139 122.2220 0002237  20.8060   9.4266 15.73192751  5901,6727.916,91.534,351.286,348.276,0.0
52682.0,STARLINK-4017,PAYLOAD,2022-06-23 14:00:01,15.73208425,0.0002193,53.2132,118.9229,16.776,191.3303,-3.3231e-05,-5.285e-05,0.0,0 STARLINK-4017,1 52682U 22053AC  22174.58334491 -.00005285  00000-0 -33231-4 0  9996,2 52682  53.2132 118.9229 0002193  16.7760 191.3303 15.73208425  6019,6727.871,91.533,351.212,348.261,0.0
52682.0,STARLINK-4017,PAYLOAD,2022-06-23 22:00:00,15.73204945,0.0002461,53.2174,117.2744,25.2863,271.6609,-5.5397000000000005e-06,-1.4e-05,0.0,0 STARLINK-4017,1 52682U 22053AC  22174.91667824 -.00001400  00000-0 -55397-5 0  9995,2 52682  53.2174 117.2744 0002461  25.2863 271.6609 15.73204945  6065,6727.880999999999,91.533,351.402,348.09,0.0
52682.0,STARLINK-4017,PAYLOAD,2022-06-24 04:00:00,15.73173228,0.0002413,53.2136,116.0376,21.8426,251.9259,0.00026416,0.00036574,0.0,0 STARLINK-4017,1 52682U 22053AC  22175.16667824  .00036574  00000-0  26416-3 0  9999,2 52682  53.2136 116.0376 0002413  21.8426 251.9259 15.73173228  6101,6727.972,91.535,351.46,348.213,0.0
52682.0,STARLINK-4017,PAYLOAD,2022-06-24 14:00:01,15.73177949,0.0002177,53.2139,113.9739,17.9649,96.9672,5.1917e-06,1.07e-06,0.0,0 STARLINK-4017,1 52682U 22053AC  22175.58334491  .00000107  00000-0  51917-5 0  9995,2 52682  53.2139 113.9739 0002177  17.9649  96.9672 15.73177949  1300,6727.958000000001,91.534,351.288,348.358,0.0
52682.0,STARLINK-4017,PAYLOAD,2022-06-24 20:00:01,15.73201426,0.0002176,53.214,112.7364,23.0954,68.5008,-0.00028069,-0.00039835,0.0,0 STARLINK-4017,1 52682U 22053AC  22175.83334491 -.00039835  00000-0 -28069-3 0  9995,2 52682  53.2140 112.7364 0002176  23.0954  68.5008 15.73201426  6209,6727.891,91.533,351.22,348.292,0.0
52682.0,STARLINK-4017,PAYLOAD,2022-06-24 22:00:01,15.73214889,0.0002209,53.2139,112.3246,23.4146,180.4725,-0.00059717,-0.00083665,0.0,0 STARLINK-4017,1 52682U 22053AC  22175.91668981 -.00083665  00000-0 -59717-3 0  9992,2 52682  53.2139 112.3246 0002209  23.4146 180.4725 15.73214889  1309,6727.853,91.532,351.204,348.232,0.0
52682.0,STARLINK-4017,PAYLOAD,2022-06-25 14:00:01,15.73163491,0.0002202,53.2135,109.0254,26.8172,354.7878,0.00034717,0.0004831,0.0,0 STARLINK-4017,1 52682U 22053AC  22176.58334491  .00048310  00000-0  34717-3 0  9991,2 52682  53.2135 109.0254 0002202  26.8172 354.7878 15.73163491  6320,6727.999,91.535,351.346,348.3830000000001,0.0
52682.0,STARLINK-4017,PAYLOAD,2022-06-25 22:00:00,15.73223567,0.0002199,53.2138,107.3761,28.8376,81.6753,0.00013559,0.0001847,0.0,0 STARLINK-4017,1 52682U 22053AC  22176.91667824  .00018470  00000-0  13559-3 0  9992,2 52682  53.2138 107.3761 0002199  28.8376  81.6753 15.73223567  1302,6727.828,91.532,351.172,348.214,0.0
52682.0,STARLINK-4017,PAYLOAD,2022-06-26 06:00:00,15.73246985,0.0002305,53.214,105.7283,22.8606,176.6425,0.00040961,0.00057379,0.0,0 STARLINK-4017,1 52682U 22053AC  22177.25001157  .00057379  00000-0  40961-3 0  9999,2 52682  53.2140 105.7283 0002305  22.8606 176.6425 15.73246985  6434,6727.761,91.53,351.177,348.075,0.0
52682.0,STARLINK-4017,PAYLOAD,2022-06-26 14:00:01,15.73264321,0.0002015,53.2143,104.0766,19.561,269.0286,-0.00052449,-0.00073796,0.0,0 STARLINK-4017,1 52682U 22053AC  22177.58335648 -.00073796  00000-0 -52449-3 0  9997,2 52682  53.2143 104.0766 0002015  19.5610 269.0286 15.73264321  6482,6727.712,91.529,350.932,348.221,0.0
52682.0,STARLINK-4017,PAYLOAD,2022-06-26 20:00:01,15.73213108,0.0001965,53.2144,102.8392,19.4502,245.8211,0.00039241,0.00054845,0.0,0 STARLINK-4017,1 52682U 22053AC  22177.83334491  .00054845  00000-0  39241-3 0  9997,2 52682  53.2144 102.8392 0001965  19.4502 245.8211 15.73213108  6528,6727.858,91.532,351.045,348.401,0.0
52682.0,STARLINK-4017,PAYLOAD,2022-06-26 22:00:00,15.73241437,0.0002054,53.2143,102.4274,18.5301,358.9734,5.1125e-05,6.572e-05,0.0,0 STARLINK-4017,1 52682U 22053AC  22177.91667824  .00006572  00000-0  51125-4 0  9995,2 52682  53.2143 102.4274 0002054  18.5301 358.9734 15.73241437  1302,6727.776999999999,91.531,351.024,348.26,0.0
